<?xml version="1.0" encoding="UTF-8"?>
<gpx version="1.1" creator="St. Gregory Path" xmlns="http://www.topografix.com/GPX/1/1">
  <metadata>
    <name>Путь Святого Григория · Ереван → Севанаванк</name>
    <desc>99 км по стопам Св. Григория Просветителя. 5 дней: 30 июня – 4 июля 2027.
Координаты ориентировочные (основные пути) — перед походом заменить фактическим треком.</desc>
    <time>2027-06-30T00:00:00Z</time>
  </metadata>
  <trk>
    <name>Путь Святого Григория · Ереван → Севанаванк</name>
    <trkseg>
      <trkpt lat="40.1719" lon="44.5166"><name>День 1 · Старт · Собор Св. Григория (Ереван)</name></trkpt>
      <trkpt lat="40.1910" lon="44.5157"><name>День 1 · Молебен Трдату III · Каскад</name></trkpt>
      <trkpt lat="40.2276" lon="44.5368"><name>День 1 · Сурб Хач · водосвятный молебен</name></trkpt>
      <trkpt lat="40.2509" lon="44.5642"><name>День 1 · Птгнаванк · обед</name></trkpt>
      <trkpt lat="40.3173" lon="44.6266"><name>День 1 · Финиш · Нор-Ачин (ночёвка 1)</name></trkpt>
      <trkpt lat="40.3950" lon="44.6010"><name>День 2 · Монастырь Каренис</name></trkpt>
      <trkpt lat="40.4090" lon="44.6410"><name>День 2 · Финиш · Чаренцаван (ночёвка 2)</name></trkpt>
      <trkpt lat="40.4627" lon="44.7110"><name>День 3 · Солак · молебен</name></trkpt>
      <trkpt lat="40.4480" lon="44.9860"><name>День 3 · Озеро Цовинар · водосвятие</name></trkpt>
      <trkpt lat="40.5000" lon="44.7660"><name>День 3 · Раздан · молебен</name></trkpt>
      <trkpt lat="40.2814" lon="45.0101"><name>День 3 · Финиш · Ддмашен (ночёвка 3)</name></trkpt>
      <trkpt lat="40.3910" lon="45.0240"><name>День 4 · Цахкунк · молебен Св. Саргису</name></trkpt>
      <trkpt lat="40.5502" lon="44.9500"><name>День 4 · Севан · молебен Архангелам</name></trkpt>
      <trkpt lat="40.4640" lon="44.9870"><name>День 4 · Финиш · Цамакаберд (ночёвка 4)</name></trkpt>
      <trkpt lat="40.5640" lon="45.0107"><name>День 5 · Финал · Севанаванк · Вардавар</name></trkpt>
    </trkseg>
  </trk>
  <wpt lat="40.1719" lon="44.5166"><name>Собор Св. Григория · старт</name><cmt>День 1 · 08:30. Литургия в 06:45.</cmt></wpt>
  <wpt lat="40.3173" lon="44.6266"><name>Нор-Ачин · ночёвка 1</name><cmt>День 1 · 20:35. Церковь Аменапркич.</cmt></wpt>
  <wpt lat="40.4090" lon="44.6410"><name>Чаренцаван · ночёвка 2</name><cmt>День 2 · 18:35. Церковь Всеспасителя.</cmt></wpt>
  <wpt lat="40.2814" lon="45.0101"><name>Ддмашен · ночёвка 3</name><cmt>День 3 · 20:00. Церковь Св. Фаддея.</cmt></wpt>
  <wpt lat="40.4640" lon="44.9870"><name>Цамакаберд · ночёвка 4</name><cmt>День 4 · 17:25. Храм Св. Геворга. Бдение 22:00.</cmt></wpt>
  <wpt lat="40.5640" lon="45.0107"><name>Севанаванк · финал</name><cmt>День 5 · 08:00. Литургия 09:00, Вардавар 11:30.</cmt></wpt>
</gpx>